[
    {
        "Altitude(m)": 610405.2790539542,
        "Argument of Periapsis(deg)": 0.0,
        "Eccentricity": 0.0,
        "Inclination(deg)": 60.0,
        "Latitude(deg)": 52.11115025069976,
        "Longitude(deg)": -52.52264240675501,
        "Mean Anomaly(deg)": -245.4545,
        "RAAN(deg)": 275.0,
        "Satellite Name": "Test1 1217",
        "Satellite Number": 1217,
        "Semi-Major Axis(m)": 6980739.136638005,
        "Time(s)": 0
    },
    {
        "Altitude(m)": 610321.8521289473,
        "Argument of Periapsis(deg)": 0.00010418945913296404,
        "Eccentricity": 0.0,
        "Inclination(deg)": 60.0,
        "Latitude(deg)": 51.745865861661116,
        "Longitude(deg)": -51.753749842684165,
        "Mean Anomaly(deg)": -244.83439385453818,
        "RAAN(deg)": 274.9995799508602,
        "Satellite Name": "Test1 1217",
        "Satellite Number": 1217,
        "Semi-Major Axis(m)": 6980739.136638005,
        "Time(s)": 10
    }
]